[{"OBJECT_NAME":"AFR-1","OBJECT_ID":"2023-084AJ","EPOCH":"2026-03-09T23:02:07.499328","MEAN_MOTION":15.27543824,"ECCENTRICITY":0.00099838,"INCLINATION":97.6099,"RA_OF_ASC_NODE":203.4313,"ARG_OF_PERICENTER":334.9676,"MEAN_ANOMALY":25.1077,"EPHEMERIS_TYPE":0,"CLASSIFICATION_TYPE":"U","NORAD_CAT_ID":56964,"ELEMENT_SET_NO":999,"REV_AT_EPOCH":15207,"BSTAR":0.00024843733,"MEAN_MOTION_DOT":6.624e-5,"MEAN_MOTION_DDOT":0},{"OBJECT_NAME":"STARLINK-31067","OBJECT_ID":"2023-200V","EPOCH":"2026-03-09T22:00:01.999584","MEAN_MOTION":15.26754963,"ECCENTRICITY":0.00013862,"INCLINATION":42.9995,"RA_OF_ASC_NODE":167.4141,"ARG_OF_PERICENTER":275.4635,"MEAN_ANOMALY":216.7686,"EPHEMERIS_TYPE":0,"CLASSIFICATION_TYPE":"U","NORAD_CAT_ID":58608,"ELEMENT_SET_NO":999,"REV_AT_EPOCH":562,"BSTAR":-0.0003845601,"MEAN_MOTION_DOT":-0.00010565,"MEAN_MOTION_DDOT":0}]
